[{"OBJECT_NAME":"OBJECT M","OBJECT_ID":"2024-205M","EPOCH":"2026-03-09T22:23:47.520096","MEAN_MOTION":15.27663844,"ECCENTRICITY":0.00036602,"INCLINATION":97.3915,"RA_OF_ASC_NODE":144.193,"ARG_OF_PERICENTER":310.2554,"MEAN_ANOMALY":49.8364,"EPHEMERIS_TYPE":0,"CLASSIFICATION_TYPE":"U","NORAD_CAT_ID":61905,"ELEMENT_SET_NO":999,"REV_AT_EPOCH":7334,"BSTAR":0.00036391974,"MEAN_MOTION_DOT":9.771e-5,"MEAN_MOTION_DDOT":0},{"OBJECT_NAME":"STARLINK-33688","OBJECT_ID":"2025-070Z","EPOCH":"2026-03-09T22:41:03.818976","MEAN_MOTION":15.27610359,"ECCENTRICITY":0.00022869,"INCLINATION":42.9998,"RA_OF_ASC_NODE":258.4971,"ARG_OF_PERICENTER":266.6115,"MEAN_ANOMALY":93.4475,"EPHEMERIS_TYPE":0,"CLASSIFICATION_TYPE":"U","NORAD_CAT_ID":63483,"ELEMENT_SET_NO":999,"REV_AT_EPOCH":5301,"BSTAR":0.0011850844,"MEAN_MOTION_DOT":0.00032524,"MEAN_MOTION_DDOT":0}]
